places=[{"placeName":"Confusion Records","address":"848 Park Ave, Lake Park, FL 33403","latitude":26.798339,"longitude":-80.070173},
{"placeName":"Arrow's Aim Records","address":"10 N Main St, Gainesville, FL 32601","latitude":29.652023,"longitude":-82.325022},
{"placeName":"Hear Again Music and Movies","address":"201 SE 1 St, Gainesville, FL 32601","latitude":29.649787,"longitude":-82.323735},
{"placeName":"Park Ave CDs","address":"2916 Corrine Dr, Orlando, FL 32803","latitude":28.567475,"longitude":-81.346704},
{"placeName":"Daddy Kool Records","address":"666 Central Avenue North, St. Petersburg, FL 33701","latitude":27.770892,"longitude":-82.642841},
{"placeName":"Radio-Active Records","address":"845 N Federal Hwy, Fort Lauderdale, FL 33304","latitude":26.134812,"longitude":-80.13795},
{"placeName":"Microgroove","address":"4906 N Florida Ave, Tampa, FL 33603","latitude":27.991103,"longitude":-82.459682},
{"placeName":"Yesterday and Today Records","address":"11041 Beach Blvd, Jacksonville, FL 32246","latitude":30.288506,"longitude":-81.532105},
{"placeName":"Sweat Records","address":"5505 NE 2nd Ave, Miami, FL 33137","latitude":25.82641,"longitude":-80.191651},
{"placeName":"Planet Retro Records","address":"2414 Central Ave, St. Petersburg, FL 33712","latitude":27.770942,"longitude":-82.666171},
{"placeName":"Rock & Roll Heaven","address":"1814 N Orange Ave, Orlando, FL 32804","latitude":28.568258,"longitude":-81.37301},
{"placeName":"Retro Records","address":"59 N Bumby Ave, Orlando, FL 32803","latitude":28.543549,"longitude":-81.35145},
{"placeName":"Uncle Tony's Donut Shoppe","address":"703 N Orange Ave, Orlando, FL 32801","latitude":28.553278,"longitude":-81.378927},
{"placeName":"Sound Exchange of Pinellas ","address":"7688 49th St N, Pinellas Park, FL 33781","latitude":27.841949,"longitude":-82.700802},
{"placeName":"Sound Exchange","address":"14246 N Nebraska Ave, Tampa, FL 33613","latitude":28.075858,"longitude":-82.451575},
{"placeName":"We Got the Beats ","address":"5130 N Federal Hwy #2, Fort Lauderdale, FL 33308","latitude":26.191674,"longitude":-80.113296},
{"placeName":"Full Moon Crazy Record Shop ","address":"647 Cleveland St, Clearwater, FL 33755","latitude":27.96537,"longitude":-82.797054},
{"placeName":"The Record Rack ","address":"2205 E Atlantic Blvd, Pompano Beach, FL 33062","latitude":26.232005,"longitude":-80.101624},
{"placeName":"Vatican City Vinyl Records","address":"404 S Washington Blvd, Sarasota, FL 34236","latitude":27.333228,"longitude":-82.531218},
{"placeName":"Deep Search ","address":"822 Lomax St, Jacksonville, FL 32204","latitude":30.313588,"longitude":-81.680911},
{"placeName":"Young, Loud, and Snotty","address":"79 Sailfish Dr E, Atlantic Beach, FL 32233","latitude":30.325475,"longitude":-81.406658}]
